{
  "type": "FeatureCollection",
  "features": [
    {
      "type": "Feature",
      "properties": {
        "norad_id": 28051,
        "name": "IRS-P6 (RESOURCESAT-1)",
        "group": "resource",
        "lat": -55.68232178854215,
        "lon": -171.04881039190852,
        "alt_km": 741.9862773156065,
        "timestamp": "2025-12-06T11:28:10.685633+00:00",
        "meta_object_name": "IRS-P6 (RESOURCESAT-1)",
        "meta_object_id": "2003-046A",
        "meta_epoch": "2025-12-05T23:07:07.742784",
        "meta_mean_motion": 14.36069917,
        "meta_eccentricity": 0.0063802,
        "meta_inclination": 98.2187,
        "meta_ra_of_asc_node": 20.6842,
        "meta_arg_of_pericenter": 201.074,
        "meta_mean_anomaly": 256.0285,
        "meta_ephemeris_type": 0,
        "meta_classification_type": "U",
        "meta_norad_cat_id": 28051,
        "meta_element_set_no": 999,
        "meta_rev_at_epoch": 15279,
        "meta_bstar": 0.00014859258,
        "meta_mean_motion_dot": 4.01e-06,
        "meta_mean_motion_ddot": 0,
        "tle_line1": "1 28051U 03046A   25339.96328406  .00000401  00000+0  14859-3 0  9993",
        "tle_line2": "2 28051  98.2187  20.6842 0063802 201.0740 256.0285 14.36069917152796"
      },
      "geometry": {
        "type": "Point",
        "coordinates": [
          -171.04881039190852,
          -55.68232178854215
        ]
      }
    },
    {
      "type": "Feature",
      "properties": {
        "norad_id": 28220,
        "name": "SHIYAN-1 (SY-1)",
        "group": "resource",
        "lat": -19.91619213882161,
        "lon": -141.23335255850768,
        "alt_km": 490.9538067331605,
        "timestamp": "2025-12-06T11:28:10.685645+00:00",
        "meta_object_name": "SHIYAN-1 (SY-1)",
        "meta_object_id": "2004-012A",
        "meta_epoch": "2025-12-05T22:01:20.788608",
        "meta_mean_motion": 15.27878629,
        "meta_eccentricity": 0.00060951,
        "meta_inclination": 97.8947,
        "meta_ra_of_asc_node": 41.0553,
        "meta_arg_of_pericenter": 351.4859,
        "meta_mean_anomaly": 8.6275,
        "meta_ephemeris_type": 0,
        "meta_classification_type": "U",
        "meta_norad_cat_id": 28220,
        "meta_element_set_no": 999,
        "meta_rev_at_epoch": 18152,
        "meta_bstar": 0.00075705471,
        "meta_mean_motion_dot": 0.00020569,
        "meta_mean_motion_ddot": 0,
        "tle_line1": "1 28220U 04012A   25339.91760172  .00020569  00000+0  75705-3 0  9994",
        "tle_line2": "2 28220  97.8947  41.0553 0006095 351.4859   8.6275 15.27878629181523"
      },
      "geometry": {
        "type": "Point",
        "coordinates": [
          -141.23335255850768,
          -19.91619213882161
        ]
      }
    },
    {
      "type": "Feature",
      "properties": {
        "norad_id": 28376,
        "name": "AURA",
        "group": "resource",
        "lat": -56.02405238067069,
        "lon": -56.7866973934066,
        "alt_km": 697.9319398936768,
        "timestamp": "2025-12-06T11:28:10.685657+00:00",
        "meta_object_name": "AURA",
        "meta_object_id": "2004-026A",
        "meta_epoch": "2025-12-05T22:34:46.974144",
        "meta_mean_motion": 14.6092156,
        "meta_eccentricity": 0.00011464,
        "meta_inclination": 98.3175,
        "meta_ra_of_asc_node": 290.136,
        "meta_arg_of_pericenter": 93.1243,
        "meta_mean_anomaly": 267.0089,
        "meta_ephemeris_type": 0,
        "meta_classification_type": "U",
        "meta_norad_cat_id": 28376,
        "meta_element_set_no": 999,
        "meta_rev_at_epoch": 13799,
        "meta_bstar": 0.00046583095,
        "meta_mean_motion_dot": 2.233e-05,
        "meta_mean_motion_ddot": 0,
        "tle_line1": "1 28376U 04026A   25339.94082146  .00002233  00000+0  46583-3 0  9992",
        "tle_line2": "2 28376  98.3175 290.1360 0001146  93.1243 267.0089 14.60921560137991"
      },
      "geometry": {
        "type": "Point",
        "coordinates": [
          -56.7866973934066,
          -56.02405238067069
        ]
      }
    },
    {
      "type": "Feature",
      "properties": {
        "norad_id": 28649,
        "name": "IRS-P5 (CARTOSAT-1)",
        "group": "resource",
        "lat": -33.29368913447798,
        "lon": -177.82735707684088,
        "alt_km": 604.0833254353129,
        "timestamp": "2025-12-06T11:28:10.685667+00:00",
        "meta_object_name": "IRS-P5 (CARTOSAT-1)",
        "meta_object_id": "2005-017A",
        "meta_epoch": "2025-12-05T23:14:06.836352",
        "meta_mean_motion": 14.90369714,
        "meta_eccentricity": 0.00016533,
        "meta_inclination": 97.5495,
        "meta_ra_of_asc_node": 6.682,
        "meta_arg_of_pericenter": 51.2598,
        "meta_mean_anomaly": 308.8768,
        "meta_ephemeris_type": 0,
        "meta_classification_type": "U",
        "meta_norad_cat_id": 28649,
        "meta_element_set_no": 999,
        "meta_rev_at_epoch": 11503,
        "meta_bstar": 0.00036368321,
        "meta_mean_motion_dot": 3.487e-05,
        "meta_mean_motion_ddot": 0,
        "tle_line1": "1 28649U 05017A   25339.96813468  .00003487  00000+0  36368-3 0  9999",
        "tle_line2": "2 28649  97.5495   6.6820 0001653  51.2598 308.8768 14.90369714115031"
      },
      "geometry": {
        "type": "Point",
        "coordinates": [
          -177.82735707684088,
          -33.29368913447798
        ]
      }
    },
    {
      "type": "Feature",
      "properties": {
        "norad_id": 28893,
        "name": "SINAH 1",
        "group": "resource",
        "lat": 78.04685109761739,
        "lon": 65.68860044504582,
        "alt_km": 670.2583046444697,
        "timestamp": "2025-12-06T11:28:10.685678+00:00",
        "meta_object_name": "SINAH 1",
        "meta_object_id": "2005-043D",
        "meta_epoch": "2025-12-05T21:58:33.787776",
        "meta_mean_motion": 14.6395027,
        "meta_eccentricity": 0.00149695,
        "meta_inclination": 98.2601,
        "meta_ra_of_asc_node": 108.4549,
        "meta_arg_of_pericenter": 157.4143,
        "meta_mean_anomaly": 202.7721,
        "meta_ephemeris_type": 0,
        "meta_classification_type": "U",
        "meta_norad_cat_id": 28893,
        "meta_element_set_no": 999,
        "meta_rev_at_epoch": 7224,
        "meta_bstar": 0.00018750957,
        "meta_mean_motion_dot": 9.34e-06,
        "meta_mean_motion_ddot": 0,
        "tle_line1": "1 28893U 05043D   25339.91566884  .00000934  00000+0  18751-3 0  9991",
        "tle_line2": "2 28893  98.2601 108.4549 0014969 157.4143 202.7721 14.63950270 72246"
      },
      "geometry": {
        "type": "Point",
        "coordinates": [
          65.68860044504582,
          78.04685109761739
        ]
      }
    },
    {
      "type": "Feature",
      "properties": {
        "norad_id": 29079,
        "name": "EROS B",
        "group": "resource",
        "lat": -67.59231416978707,
        "lon": 115.006176811694,
        "alt_km": 377.15687970776435,
        "timestamp": "2025-12-06T11:28:10.685690+00:00",
        "meta_object_name": "EROS B",
        "meta_object_id": "2006-014A",
        "meta_epoch": "2025-12-05T21:57:30.469536",
        "meta_mean_motion": 15.65650514,
        "meta_eccentricity": 0.00017705,
        "meta_inclination": 97.3489,
        "meta_ra_of_asc_node": 96.1776,
        "meta_arg_of_pericenter": 251.461,
        "meta_mean_anomaly": 108.6457,
        "meta_ephemeris_type": 0,
        "meta_classification_type": "U",
        "meta_norad_cat_id": 29079,
        "meta_element_set_no": 999,
        "meta_rev_at_epoch": 8973,
        "meta_bstar": 0.0017525663,
        "meta_mean_motion_dot": 0.00179769,
        "meta_mean_motion_ddot": 0,
        "tle_line1": "1 29079U 06014A   25339.91493599  .00179769  00000+0  17526-2 0  9990",
        "tle_line2": "2 29079  97.3489  96.1776 0001770 251.4610 108.6457 15.65650514 89735"
      },
      "geometry": {
        "type": "Point",
        "coordinates": [
          115.006176811694,
          -67.59231416978707
        ]
      }
    },
    {
      "type": "Feature",
      "properties": {
        "norad_id": 29228,
        "name": "RESURS-DK 1",
        "group": "resource",
        "lat": -10.324673509620109,
        "lon": 114.20159459615601,
        "alt_km": 533.0887174890822,
        "timestamp": "2025-12-06T11:28:10.685701+00:00",
        "meta_object_name": "RESURS-DK 1",
        "meta_object_id": "2006-021A",
        "meta_epoch": "2025-12-05T19:38:30.099552",
        "meta_mean_motion": 15.12100582,
        "meta_eccentricity": 0.00077897,
        "meta_inclination": 69.9338,
        "meta_ra_of_asc_node": 119.7231,
        "meta_arg_of_pericenter": 263.9017,
        "meta_mean_anomaly": 96.1261,
        "meta_ephemeris_type": 0,
        "meta_classification_type": "U",
        "meta_norad_cat_id": 29228,
        "meta_element_set_no": 999,
        "meta_rev_at_epoch": 7333,
        "meta_bstar": 0.00031090969,
        "meta_mean_motion_dot": 5.264e-05,
        "meta_mean_motion_ddot": 0,
        "tle_line1": "1 29228U 06021A   25339.81840393  .00005264  00000+0  31091-3 0  9993",
        "tle_line2": "2 29228  69.9338 119.7231 0007789 263.9017  96.1261 15.12100582 73332"
      },
      "geometry": {
        "type": "Point",
        "coordinates": [
          114.20159459615601,
          -10.324673509620109
        ]
      }
    }
  ]
}